0 FENGYUN 1C DEB
1 31754U 99025CFD 13281.11330629  .00001114  00000-0  48939-3 0  5387
2 31754 098.9833 013.9254 0065758 162.4399 197.8826 14.24505178333996
0 FENGYUN 1C DEB
1 31754U 99025CFD 13282.24299051  .00001462  00000-0  63563-3 0  5392
2 31754 098.9837 015.0835 0065999 160.3645 229.9901 14.24515803334152
0 FENGYUN 1C DEB
1 31754U 99025CFD 13288.21338515  .00002126  00000-0  91531-3 0  5411
2 31754 098.9841 021.1888 0065970 143.5435 247.4883 14.24534888334992
0 FENGYUN 1C DEB
1 31754U 99025CFD 13291.52117080  .00001788  00000-0  77249-3 0  5425
2 31754 098.9836 024.5715 0065942 134.1929 290.7763 14.24546993335477
0 FENGYUN 1C DEB
1 31754U 99025CFD 13294.47030444  .00001861  00000-0  80342-3 0  5431
2 31754 098.9833 027.5873 0065846 125.8323 294.9559 14.24560002335892
